STARLINK-1947
1 16797C 20074BL  21325.99937091  .00021540  00000-0  30144-3 0  3256
2 16797  53.0551 117.6736 0000932  64.1620 243.8348 15.56165359    17
